PLEIADES 1A             
1 38012U 11076F   16097.83102195  .00000067  00000-0  24162-4 0  9993
2 38012  98.2034 173.0835 0001301  93.0204 267.1135 14.58541416229256
ZIYUAN 1-02C (ZY 1-02C) 
1 38038U 11079A   16097.84695021 -.00001188  00000-0 -39917-3 0  9990
2 38038  98.3941 168.6637 0001042  58.6614 301.4696 14.35407776224902
ZIYUAN 3 (ZY 3)         
1 38046U 12001A   16097.78683656  .00002091  00000-0  96126-4 0  9997
2 38046  97.3335 170.5963 0002951  68.6678  45.6862 15.21431360235605
RISAT 1                 
1 38248U 12017A   16097.69261469  .00001060  00000-0  71106-4 0  9998
2 38248  97.5638 105.3589 0006775  94.4025 355.8293 15.08958589217413
ARIRANG-3 (KOMPSAT-3)   
1 38338U 12025B   16097.80975335  .00000157  00000-0  41221-4 0  9995
2 38338  98.1570  35.7848 0008602 258.2191 101.8047 14.61391789207443
KANOPUS-V 1             
1 38707U 12039A   16097.74099770  .00002728  00000-0  13167-3 0  9996
2 38707  97.4572  15.1449 0001648  85.3949 358.5336 15.19516936205761
SPOT 6                  
1 38755U 12047A   16097.71077012  .00000068  00000-0  24388-4 0  9993
2 38755  98.1903 165.8041 0001114  79.2912 280.8412 14.58546042190310
PLEIADES 1B             
1 39019U 12068A   16097.86512138  .00000116  00000-0  34734-4 0  9999
2 39019  98.2060 173.1282 0001266  89.9714 270.1608 14.58535438178114
GOKTURK 2               
1 39030U 12073A   16097.82366860  .00000077  00000-0  22953-4 0  9999
2 39030  98.0421 352.1559 0015666  66.8183 293.4673 14.65657803176448
LANDSAT 8               
1 39084U 13008A   16097.83190315  .00000121  00000-0  36892-4 0  9995
2 39084  98.1913 168.5299 0001315 101.2895 258.8451 14.57116485167518
SARAL                   
1 39086U 13009A   16096.99413808  .00000026  00000-0  25802-4 0  9992
2 39086  98.5421 285.3899 0001331 126.8823 233.2483 14.32240684162535
GAOFEN 1                
1 39150U 13018A   16097.81950454  .00000182  00000-0  33433-4 0  9991
2 39150  97.9775 181.3939 0019447  26.2631 333.9555 14.76490150158850
VNREDSAT 1              
1 39160U 13021B   16097.82778682  .00000142  00000-0  36845-4 0  9994
2 39160  98.1201 175.4352 0001222  76.6203 283.5132 14.62985165155800
ARIRANG-5 (KOMPSAT-5)   
1 39227U 13042A   16097.77128622 -.00000094  00000-0 -24200-5 0  9999
2 39227  97.6041 283.6124 0002060  92.4496 322.8614 15.04515917144070
YAOGAN 18               
1 39363U 13059A   16097.76785743  .00001942  00000-0  98798-4 0  9993
2 39363  97.4394 168.8969 0001639  99.3151  49.7256 15.18014783135118
SKYSAT-1                
1 39418U 13066C   16097.78020158  .00001165  00000-0  10310-3 0  9996
2 39418  97.7293 179.6794 0020612 311.9767  47.9712 14.98087537129736
DUBAISAT-2              
1 39419U 13066D   16097.82063568  .00000329  00000-0  36826-4 0  9996
2 39419  97.7196 173.4268 0012464 283.2484  76.7350 14.93230390129370
GPM-CORE                
1 39574U 14009C   16097.16852895  .00007001  00000-0  10632-3 0  9992
2 39574  65.0124 325.9412 0010130 271.9810  88.0175 15.55381080119542
SENTINEL-1A             
1 39634U 14016A   16097.87004631 -.00000045  00000-0  11127-6 0  9997
2 39634  98.1817 105.7294 0001414  82.1116 278.0249 14.59198030107064
KAZEOSAT 1              
1 39731U 14024A   16097.75851672  .00000026  00000-0  21280-4 0  9993
2 39731  98.4538 175.8153 0001087  84.6423 275.4891 14.41987484101991
ALOS-2                  
1 39766U 14029A   16097.81550628 -.00000430  00000-0 -50729-4 0  9991
2 39766  97.9180 195.4156 0001617  79.0033 281.1394 14.79467954101089
KAZEOSAT 2              
1 40010U 14033A   16097.84815133  .00000133  00000-0  23532-4 0  9998
2 40010  97.9303 358.5857 0015801 256.9494 102.9959 14.82060667 97318
HODOYOSHI-4             
1 40011U 14033B   16097.90048420  .00000286  00000-0  44023-4 0  9990
2 40011  97.9254 356.4133 0025657 247.8151 112.0343 14.80645605 97191
DEIMOS-2                
1 40013U 14033D   16097.87822634  .00000402  00000-0  54031-4 0  9995
2 40013  97.9149 359.8381 0001159  27.0725 333.0545 14.84585971 97466
HODOYOSHI-3             
1 40015U 14033F   16097.75696809  .00000282  00000-0  45947-4 0  9999
2 40015  97.9209 353.4183 0035909 247.9165 111.8231 14.78015722 97005
SPOT 7                  
1 40053U 14034A   16097.81276469 -.00000046  00000-0  00000+0 0  9990
2 40053  98.2048 165.6306 0001149  75.3779 284.7542 14.58532821 94267
SKYSAT-2                
1 40072U 14037D   16097.71616854  .00000186  00000-0  31488-4 0  9992
2 40072  98.3285 185.9691 0007114  21.0597 339.0902 14.80798353 94384
WORLDVIEW-3 (WV-3)      
1 40115U 14048A   16097.77439901  .00000169  00000-0  26076-4 0  9992
2 40115  97.9029 176.3508 0000862  68.3712 291.7589 14.85092496 89345
YAOGAN 21               
1 40143U 14053A   16097.81303339  .00002737  00000-0  11323-3 0  9990
2 40143  97.3533 173.8061 0011528 308.8957 190.7786 15.24744670 87909
YAOGAN 22               
1 40275U 14063A   16097.83289293 -.00000044  00000-0  00000+0 0  9997
2 40275 100.3712 213.3956 0005601 354.2398   5.8652 13.15307877 70273
ASNARO                  
1 40298U 14070A   16097.76469196  .00003341  00000-0  16050-3 0  9992
2 40298  97.4356 180.9647 0001281  96.8355  16.6970 15.19525634 78580
HODOYOSHI-1             
1 40299U 14070B   16097.83641293  .00001987  00000-0  92378-4 0  9993
2 40299  97.4315 180.6551 0013643 174.6082 324.7686 15.21066260 78589
CHUBUSAT-1              
1 40300U 14070C   16097.83995169  .00002144  00000-0  10355-3 0  9990
2 40300  97.4277 179.0887 0021108 183.0759 286.4352 15.19544366 78492
QSAT-EOS                
1 40301U 14070D   16097.78267281  .00004253  00000-0  19540-3 0  9990
2 40301  97.4222 178.2935 0029642 184.4409 293.2749 15.20530058 78453
TSUBAME                 
1 40302U 14070E   16097.85090131  .00002073  00000-0  11244-3 0  9998
2 40302  97.4183 175.0075 0040664 195.9769 275.1656 15.14974127 78259
YAOGAN 23               
1 40305U 14071A   16097.84506728  .00002119  00000-0  10763-3 0  9991
2 40305  97.3873  39.0532 0001971 114.2495 329.9695 15.17958992 77235
YAOGAN 24               
1 40310U 14072A   16097.74052395  .00000225  00000-0  39213-4 0  9991
2 40310  97.9564 216.6855 0018077  40.2812 319.9737 14.76948785 74293
CBERS-4                 
1 40336U 14079A   16097.85924100 -.00000353  00000-0 -10792-3 0  9994
2 40336  98.4939 174.1602 0000699  76.0050 284.1235 14.35439787 69813
RESURS P2               
1 40360U 14087A   16097.89196356  .00001834  00000-0  62109-4 0  9991
2 40360  97.2803 192.9157 0007377 124.5154 341.2981 15.31833449 71584
YAOGAN 26               
1 40362U 14088A   16097.72863088  .00003531  00000-0  13923-3 0  9994
2 40362  97.3902 176.1828 0002303  43.2394  72.9890 15.26224795 71177
SMAP                    
1 40376U 15003A   16097.94494811  .00000149  00000-0  37958-4 0  9992
2 40376  98.1237 106.0522 0001442  87.2843 272.8528 14.63380963 63096
KOMPSAT 3A              
1 40536U 15014A   16097.86214272  .00001075  00000-0  65839-4 0  9992
2 40536  97.5496  38.1682 0013220  60.0393   4.7634 15.12257760 57111
SENTINEL-2A             
1 40697U 15028A   16097.67600859 -.00000057  00000-0 -52610-5 0  9999
2 40697  98.5711 172.8996 0001171  99.5031 260.6295 14.30817999 41273
CARBONITE 1 (CBNT-1)    
1 40718U 15032D   16097.52540668  .00000043  00000-0  14144-4 0  9995
2 40718  98.0201 349.3390 0018302  97.7300 262.6012 14.74396394 39903
YAOGAN 27               
1 40878U 15040A   16097.67780385 -.00000045  00000-0  00000+0 0  9993
2 40878 100.4565 158.7756 0009205 125.4438 234.7546 13.15947056 29409
LAPAN-A2                
1 40931U 15052B   16097.67851326  .00000803  00000-0  23046-4 0  9991
2 40931   5.9983 104.9288 0012745 189.1690 170.8101 14.76445350 28342
YAOGAN 28               
1 41026U 15064A   16097.74894322  .00003976  00000-0  13793-3 0  9992
2 41026  97.2598 227.7117 0010018  88.7443  47.4039 15.30321282 23016
YAOGAN 29               
1 41038U 15069A   16097.81466376  .00000122  00000-0  22776-4 0  9994
2 41038  97.8546  82.1423 0001300 103.4380 256.6982 14.80290959 19522
JASON-3                 
1 41240U 16002A   16097.33173577  .00000169  00000-0  10000-2 0  9998
2 41240  66.0439 309.4964 0007829 270.8433  89.1692 12.80931544 10192
SENTINEL-3A             
1 41335U 16011A   16097.88108329 -.00000044  00000-0  00000+0 0  9995
2 41335  98.6229 165.5393 0000978  87.7664 272.3628 14.26737176  7144
